NORAD_CAT_ID,OBJECT_NAME,OBJECT_TYPE,EPOCH,MEAN_MOTION,ECCENTRICITY,INCLINATION,RA_OF_ASC_NODE,ARG_OF_PERICENTER,MEAN_ANOMALY,BSTAR,MEAN_MOTION_DOT,MEAN_MOTION_DDOT,TLE_LINE0,TLE_LINE1,TLE_LINE2,SEMIMAJOR_AXIS,PERIOD,APOGEE,PERIGEE,DECAYED
49411.0,STARLINK-3162,PAYLOAD,2022-01-25 14:00:01,15.41478799,0.0001825,53.2173,134.1199,33.1038,307.324,-0.016778,-0.00663978,0.0,0 STARLINK-3162,1 49411U 21104D   22025.58334491 -.00663978  00000-0 -16778-1 0  9996,2 49411  53.2173 134.1199 0001825  33.1038 307.3240 15.41478799  3652,6819.880999999999,93.417,442.991,440.501,0.0
49411.0,STARLINK-3162,PAYLOAD,2022-01-25 22:00:00,15.41011626,0.0001460999999999,53.2172,132.5448,42.9684,347.9883,-0.017005,-0.00662579,0.0,0 STARLINK-3162,1 49411U 21104D   22025.91667824 -.00662579  00000-0 -17005-1 0  9992,2 49411  53.2172 132.5448 0001461  42.9684 347.9883 15.41011626  3690,6821.259,93.445,444.121,442.128,0.0
49411.0,STARLINK-3162,PAYLOAD,2022-01-26 06:00:00,15.40543987,0.0001730999999999,53.2173,130.97,35.3562,45.5692,-0.017217,-0.0066063999999999,0.0,0 STARLINK-3162,1 49411U 21104D   22026.25001157 -.00660640  00000-0 -17217-1 0  9993,2 49411  53.2173 130.9700 0001731  35.3562  45.5692 15.40543987 12840,6822.64,93.473,445.686,443.324,0.0
49411.0,STARLINK-3162,PAYLOAD,2022-01-26 14:00:01,15.40078627,0.0002091,53.2171,129.3999,30.137,100.1939,-0.017547,-0.00662857,0.0,0 STARLINK-3162,1 49411U 21104D   22026.58334491 -.00662857  00000-0 -17547-1 0  9997,2 49411  53.2171 129.3999 0002091  30.1370 100.1939 15.40078627  3677,6824.014,93.502,447.306,444.452,0.0
49411.0,STARLINK-3162,PAYLOAD,2022-01-26 21:13:30,15.40423189,0.0001486,53.2164,127.998,26.4103,333.6978,-0.0082545,-0.003254,0.0,0 STARLINK-3162,1 49411U 21104D   22026.88438108 -.00325400  00000-0 -82545-2 0  9991,2 49411  53.2164 127.9980 0001486  26.4103 333.6978 15.40423189 11865,6822.996,93.481,445.875,443.848,0.0
49411.0,STARLINK-3162,PAYLOAD,2022-01-27 01:53:55,15.40219986,0.0002055,53.2161,127.0808,31.4141,328.6987,-0.0078717,-0.00308928,0.0,0 STARLINK-3162,1 49411U 21104D   22027.07911164 -.00308928  00000-0 -78717-2 0  9993,2 49411  53.2161 127.0808 0002055  31.4141 328.6987 15.40219986 12978,6823.597,93.493,446.864,444.059,0.0
49411.0,STARLINK-3162,PAYLOAD,2022-01-27 12:48:36,15.39675655,0.0001854,53.2154,124.9402,42.1338,317.9809,-0.0075799,-0.0029279,0.0,0 STARLINK-3162,1 49411U 21104D   22027.53375499 -.00292790  00000-0 -75799-2 0  9995,2 49411  53.2154 124.9402 0001854  42.1338 317.9809 15.39675655 11968,6825.205,93.526,448.335,445.804,0.0
49411.0,STARLINK-3162,PAYLOAD,2022-01-27 20:36:19,15.39229848,0.0003084,53.2154,123.412,34.0466,326.0737,-0.0079621,-0.00302726,0.0,0 STARLINK-3162,1 49411U 21104D   22027.85855400 -.00302726  00000-0 -79621-2 0  9994,2 49411  53.2154 123.4120 0003084  34.0466 326.0737 15.39229848 12015,6826.522,93.553,450.49300000000005,446.282,0.0
49411.0,STARLINK-3162,PAYLOAD,2022-01-27 22:00:00,15.38213001,0.0001422,53.2173,123.1207,49.097,273.2562,-0.018696,-0.00663942,0.0,0 STARLINK-3162,1 49411U 21104D   22027.91667824 -.00663942  00000-0 -18696-1 0  9996,2 49411  53.2173 123.1207 0001422  49.0970 273.2562 15.38213001 13102,6829.531,93.615,452.367,450.424,0.0
49411.0,STARLINK-3162,PAYLOAD,2022-01-28 12:00:00,15.37394575,0.0001817,53.2173,120.3803,35.5529,277.9894,-0.019091,-0.0066039,0.0,0 STARLINK-3162,1 49411U 21104D   22028.50001157 -.00660390  00000-0 -19091-1 0  9997,2 49411  53.2173 120.3803 0001817  35.5529 277.9894 15.37394575  3654,6831.954000000002,93.665,455.061,452.578,0.0
49411.0,STARLINK-3162,PAYLOAD,2022-01-28 22:00:00,15.36811943,0.0001784,53.2173,118.4237,34.9523,65.531,-0.019482,-0.00661197,0.0,0 STARLINK-3162,1 49411U 21104D   22028.91667824 -.00661197  00000-0 -19482-1 0  9991,2 49411  53.2173 118.4237 0001784  34.9523  65.5310 15.36811943  3659,6833.681,93.7,456.765,454.327,0.0
49411.0,STARLINK-3162,PAYLOAD,2022-01-29 06:00:00,15.36345068,0.0001883,53.2176,116.8595,36.5063,108.8993,-0.019736,-0.00659866,0.0,0 STARLINK-3162,1 49411U 21104D   22029.25001157 -.00659866  00000-0 -19736-1 0  9992,2 49411  53.2176 116.8595 0001883  36.5063 108.8993 15.36345068 13310,6835.065,93.729,458.217,455.643,0.0
49411.0,STARLINK-3162,PAYLOAD,2022-01-29 14:00:01,15.35878209,0.0002155,53.2175,115.299,31.9769,157.7892,-0.020038,-0.00659961,0.0,0 STARLINK-3162,1 49411U 21104D   22029.58334491 -.00659961  00000-0 -20038-1 0  9991,2 49411  53.2175 115.2990 0002155  31.9769 157.7892 15.35878209  3672,6836.45,93.757,459.788,456.842,0.0
49411.0,STARLINK-3162,PAYLOAD,2022-01-29 22:00:00,15.35413786,0.0001611,53.2174,113.7364,49.2966,184.2704,-0.020473,-0.00663901,0.0,0 STARLINK-3162,1 49411U 21104D   22029.91667824 -.00663901  00000-0 -20473-1 0  9999,2 49411  53.2174 113.7364 0001611  49.2966 184.2704 15.35413786  3678,6837.829000000002,93.786,460.795,458.592,0.0
49411.0,STARLINK-3162,PAYLOAD,2022-01-30 14:00:01,15.3447943,0.0001805,53.2176,110.6187,37.4639,282.022,-0.021017,-0.00661612,0.0,0 STARLINK-3162,1 49411U 21104D   22030.58334491 -.00661612  00000-0 -21017-1 0  9997,2 49411  53.2176 110.6187 0001805  37.4639 282.0220 15.34479430 13511,6840.604,93.843,463.704,461.234,0.0
49411.0,STARLINK-3162,PAYLOAD,2022-01-30 22:00:00,15.34013378,0.0001573,53.2175,109.0594,40.3353,321.2702,-0.021377,-0.00662878,0.0,0 STARLINK-3162,1 49411U 21104D   22030.91667824 -.00662878  00000-0 -21377-1 0  9997,2 49411  53.2175 109.0594 0001573  40.3353 321.2702 15.34013378  3663,6841.99,93.871,464.931,462.778,0.0
49411.0,STARLINK-3162,PAYLOAD,2022-01-31 14:00:01,15.33079176,0.0001862,53.2176,105.9483,34.0892,50.1354,-0.021956,-0.0066108,0.0,0 STARLINK-3162,1 49411U 21104D   22031.58335648 -.00661080  00000-0 -21956-1 0  9994,2 49411  53.2176 105.9483 0001862  34.0892  50.1354 15.33079176 13675,6844.769,93.929,467.908,465.359,0.0
49411.0,STARLINK-3162,PAYLOAD,2022-01-31 22:00:01,15.32612419,0.0001709,53.2174,104.3923,40.4488,84.2134,-0.022249,-0.00660129,0.0,0 STARLINK-3162,1 49411U 21104D   22031.91668981 -.00660129  00000-0 -22249-1 0  9999,2 49411  53.2174 104.3923 0001709  40.4488  84.2134 15.32612419  3650,6846.158,93.957,469.193,466.853,0.0
49411.0,STARLINK-3162,PAYLOAD,2022-02-01 14:00:01,15.3155119,0.0001892,53.2171,101.2896,47.8801,156.0411,-0.01668,-0.00483629,0.0,0 STARLINK-3162,1 49411U 21104D   22032.58335648 -.00483629  00000-0 -16680-1 0  9994,2 49411  53.2171 101.2896 0001892  47.8801 156.0411 15.31551190  3636,6849.321,94.022,472.482,469.89,0.0
49411.0,STARLINK-3162,PAYLOAD,2022-02-01 22:00:00,15.31213953,0.0001706,53.2175,99.7349,44.7437,197.801,-0.023322,-0.00662033,0.0,0 STARLINK-3162,1 49411U 21104D   22032.91667824 -.00662033  00000-0 -23322-1 0  9994,2 49411  53.2175  99.7349 0001706  44.7437 197.8010 15.31213953 13876,6850.326,94.043,473.36,471.023,0.0
49411.0,STARLINK-3162,PAYLOAD,2022-02-02 14:00:01,15.30278478,0.0001688,53.2175,96.6374,40.8752,277.4973,-0.023859,-0.00658068,0.0,0 STARLINK-3162,1 49411U 21104D   22033.58334491 -.00658068  00000-0 -23859-1 0  9997,2 49411  53.2175  96.6374 0001688  40.8752 277.4973 15.30278478  3667,6853.118,94.101,476.14,473.826,0.0
49411.0,STARLINK-3162,PAYLOAD,2022-02-02 22:00:00,15.29813542,0.0001508,53.2175,95.0877,43.5301,311.9161,-0.024333,-0.00661245,0.0,0 STARLINK-3162,1 49411U 21104D   22033.91667824 -.00661245  00000-0 -24333-1 0  9992,2 49411  53.2175  95.0877 0001508  43.5301 311.9161 15.29813542  3667,6854.505999999999,94.129,477.405,475.338,0.0
49411.0,STARLINK-3162,PAYLOAD,2022-02-03 06:00:00,15.29250306,0.0001403,53.2168,93.5421,38.089,353.9190000000001,-0.019515,-0.00523817,0.0,0 STARLINK-3162,1 49411U 21104D   22034.25001157 -.00523817  00000-0 -19515-1 0  9999,2 49411  53.2168  93.5421 0001403  38.0890 353.9190 15.29250306 14071,6856.189,94.164,479.016,477.092,0.0
49411.0,STARLINK-3162,PAYLOAD,2022-02-03 14:00:01,15.28877299,0.0001771999999999,53.2174,91.9968,35.9515,31.9589,-0.024841,-0.00656175,0.0,0 STARLINK-3162,1 49411U 21104D   22034.58334491 -.00656175  00000-0 -24841-1 0  9997,2 49411  53.2174  91.9968 0001772  35.9515  31.9589 15.28877299 14132,6857.304,94.187,480.384,477.954,0.0
49411.0,STARLINK-3162,PAYLOAD,2022-02-03 22:00:01,15.28412002,0.0001688,53.2175,90.4503,39.0049,64.3609,-0.025275,-0.00657983,0.0,0 STARLINK-3162,1 49411U 21104D   22034.91668981 -.00657983  00000-0 -25275-1 0  9998,2 49411  53.2175  90.4503 0001688  39.0049  64.3609 15.28412002  3650,6858.696,94.215,481.719,479.403,0.0
49411.0,STARLINK-3162,PAYLOAD,2022-02-04 14:00:01,15.274752599999998,0.0001736,53.2173,87.3659,44.4645,128.0019,-0.025752,-0.00651861,0.0,0 STARLINK-3162,1 49411U 21104D   22035.58335648 -.00651861  00000-0 -25752-1 0  9992,2 49411  53.2173  87.3659 0001736  44.4645 128.0019 15.27475260 14289,6861.5,94.273,484.556,482.174,0.0
49411.0,STARLINK-3162,PAYLOAD,2022-02-04 22:00:00,15.2701199,0.0001732,53.2174,85.8226,44.5594,161.5523,-0.026335,-0.00656867,0.0,0 STARLINK-3162,1 49411U 21104D   22035.91667824 -.00656867  00000-0 -26335-1 0  9992,2 49411  53.2174  85.8226 0001732  44.5594 161.5523 15.27011990  3650,6862.887,94.302,485.941,483.564,0.0
49411.0,STARLINK-3162,PAYLOAD,2022-02-05 14:00:01,15.26076906,0.0001623,53.2173,82.7449,48.6135,223.2344,-0.026941,-0.00653375,0.0,0 STARLINK-3162,1 49411U 21104D   22036.58334491 -.00653375  00000-0 -26941-1 0  9991,2 49411  53.2173  82.7449 0001623  48.6135 223.2344 15.26076906 14439,6865.691,94.36,488.67,486.441,0.0
49411.0,STARLINK-3162,PAYLOAD,2022-02-06 14:00:01,15.2456551,0.0002034,53.2167,78.1356,29.3239,337.0489,-0.021543,-0.00502759,0.0,0 STARLINK-3162,1 49411U 21104D   22037.58335648 -.00502759  00000-0 -21543-1 0  9999,2 49411  53.2167  78.1356 0002034  29.3239 337.0489 15.24565510 14588,6870.227,94.453,493.49,490.695,0.0
